COMMENT,ORIGINATOR,NORAD_CAT_ID,OBJECT_NAME,OBJECT_TYPE,CLASSIFICATION_TYPE,INTLDES,EPOCH,EPOCH_MICROSECONDS,MEAN_MOTION,ECCENTRICITY,INCLINATION,RA_OF_ASC_NODE,ARG_OF_PERICENTER,MEAN_ANOMALY,EPHEMERIS_TYPE,ELEMENT_SET_NO,REV_AT_EPOCH,BSTAR,MEAN_MOTION_DOT,MEAN_MOTION_DDOT,FILE,TLE_LINE0,TLE_LINE1,TLE_LINE2,OBJECT_ID,OBJECT_NUMBER,SEMIMAJOR_AXIS,PERIOD,APOGEE,PERIGEE,DECAYED
"GENERATED VIA SPACETRACK.ORG API","18 SPCS","55094","SPACEBEE-165","PAYLOAD","U","23001CP","2023-03-15 09:51:30","153888","15.16372594","0.0013884","97.4895","135.521","331.5132","28.5341","0","999","1087","0.0013554","0.00026378","0","3861350","0 SPACEBEE-165","1 55094U 23001CP  23074.41076567  .00026378  00000-0  13554-2 0  9997","2 55094  97.4895 135.5210 0013884 331.5132  28.5341 15.16372594 10878","2023-001CP","55094","6894.952","94.963","526.390","507.244","0"
"GENERATED VIA SPACETRACK.ORG API","18 SPCS","55094","SPACEBEE-165","PAYLOAD","U","23001CP","2023-03-16 09:36:49","839840","15.16429746","0.001403","97.4888","136.4977","327.583","32.454","0","999","1102","0.001458","0.00028435","0","3862295","0 SPACEBEE-165","1 55094U 23001CP  23075.40057685  .00028435  00000-0  14580-2 0  9993","2 55094  97.4888 136.4977 0014030 327.5830  32.4540 15.16429746 11029","2023-001CP","55094","6894.778","94.960","526.317","506.970","0"
"GENERATED VIA SPACETRACK.ORG API","18 SPCS","55094","SPACEBEE-165","PAYLOAD","U","23001CP","2023-03-17 03:02:02","689728","15.16455589","0.0013942","97.489","137.2149","324.8653","35.166","0","999","1113","0.001073","0.00020902","0","3862949","0 SPACEBEE-165","1 55094U 23001CP  23076.12642002  .00020902  00000-0  10730-2 0  9990","2 55094  97.4890 137.2149 0013942 324.8653  35.1660 15.16455589 11135","2023-001CP","55094","6894.700","94.958","526.178","506.952","0"
"GENERATED VIA SPACETRACK.ORG API","18 SPCS","55094","SPACEBEE-165","PAYLOAD","U","23001CP","2023-03-17 09:22:07","62528","15.16462908","0.0013879","97.4892","137.4754","323.6624","36.3666","0","999","1117","0.00088697","0.00017261","0","3863278","0 SPACEBEE-165","1 55094U 23001CP  23076.39035952  .00017261  00000-0  88697-3 0  9991","2 55094  97.4892 137.4754 0013879 323.6624  36.3666 15.16462908 11171","2023-001CP","55094","6894.678","94.958","526.112","506.974","0"
"GENERATED VIA SPACETRACK.ORG API","18 SPCS","55094","SPACEBEE-165","PAYLOAD","U","23001CP","2023-03-18 17:02:26","878848","15.16511963","0.0013573","97.4893","138.7785","319.1532","40.8682","0","999","1137","0.00088072","0.00017161","0","3864452","0 SPACEBEE-165","1 55094U 23001CP  23077.71003332  .00017161  00000-0  88072-3 0  9991","2 55094  97.4893 138.7785 0013573 319.1532  40.8682 15.16511963 11375","2023-001CP","55094","6894.529","94.955","525.752","507.036","0"
"GENERATED VIA SPACETRACK.ORG API","18 SPCS","55094","SPACEBEE-165","PAYLOAD","U","23001CP","2023-03-18 21:47:29","529024","15.16518371","0.0013566","97.489","138.9736","318.6573","41.3633","0","999","1140","0.00086707","0.00016897","0","3864479","0 SPACEBEE-165","1 55094U 23001CP  23077.90798066  .00016897  00000-0  86707-3 0  9995","2 55094  97.4890 138.9736 0013566 318.6573  41.3633 15.16518371 11407","2023-001CP","55094","6894.510","94.954","525.728","507.022","0"
"GENERATED VIA SPACETRACK.ORG API","18 SPCS","55094","SPACEBEE-165","PAYLOAD","U","23001CP","2023-03-19 10:27:36","140544","15.16538537","0.0013671","97.4894","139.4951","316.3493","43.6658","0","999","1148","0.0008854","0.00017267","0","3865049","0 SPACEBEE-165","1 55094U 23001CP  23078.43583496  .00017267  00000-0  88540-3 0  9992","2 55094  97.4894 139.4951 0013671 316.3493  43.6658 15.16538537 11485","2023-001CP","55094","6894.449","94.953","525.739","506.888","0"
"GENERATED VIA SPACETRACK.ORG API","18 SPCS","55094","SPACEBEE-165","PAYLOAD","U","23001CP","2023-03-19 21:32:41","424288","15.16558024","0.0013626","97.4892","139.9513","314.77","45.2424","0","999","1155","0.00093244","0.000182","0","3865354","0 SPACEBEE-165","1 55094U 23001CP  23078.89770167  .00018200  00000-0  93244-3 0  9990","2 55094  97.4892 139.9513 0013626 314.7700  45.2424 15.16558024 11555","2023-001CP","55094","6894.390","94.952","525.649","506.860","0"
"GENERATED VIA SPACETRACK.ORG API","18 SPCS","55094","SPACEBEE-165","PAYLOAD","U","23001CP","2023-03-20 03:52:44","219424","15.16569999","0.0013605","97.4892","140.2119","313.7774","46.2332","0","999","1159","0.0009788","0.00019117","0","3865635","0 SPACEBEE-165","1 55094U 23001CP  23079.16162291  .00019117  00000-0  97880-3 0  9992","2 55094  97.4892 140.2119 0013605 313.7774  46.2332 15.16569999 11595","2023-001CP","55094","6894.353","94.951","525.598","506.839","0"
"GENERATED VIA SPACETRACK.ORG API","18 SPCS","55094","SPACEBEE-165","PAYLOAD","U","23001CP","2023-03-20 10:12:46","898784","15.16579487","0.0013592","97.4889","140.4726","312.8383","47.1707","0","999","1163","0.00098348","0.00019214","0","3865912","0 SPACEBEE-165","1 55094U 23001CP  23079.42554281  .00019214  00000-0  98348-3 0  9993","2 55094  97.4889 140.4726 0013592 312.8383  47.1707 15.16579487 11632","2023-001CP","55094","6894.325","94.951","525.560","506.819","0"
"GENERATED VIA SPACETRACK.ORG API","18 SPCS","55094","SPACEBEE-165","PAYLOAD","U","23001CP","2023-03-20 16:32:49","419168","15.16589658","0.0013551","97.4888","140.7331","311.82","48.1875","0","999","1167","0.00097203","0.00018994","0","3866115","0 SPACEBEE-165","1 55094U 23001CP  23079.68946087  .00018994  00000-0  97203-3 0  9993","2 55094  97.4888 140.7331 0013551 311.8200  48.1875 15.16589658 11670","2023-001CP","55094","6894.294","94.950","525.501","506.816","0"
"GENERATED VIA SPACETRACK.ORG API","18 SPCS","55094","SPACEBEE-165","PAYLOAD","U","23001CP","2023-03-21 03:37:53","411232","15.16608598","0.0013564","97.4886","141.1892","310.0215","49.9827","0","999","1174","0.000987","0.00019299","0","3866730","0 SPACEBEE-165","1 55094U 23001CP  23080.15131263  .00019299  00000-0  98700-3 0  9991","2 55094  97.4886 141.1892 0013564 310.0215  49.9827 15.16608598 11745","2023-001CP","55094","6894.236","94.949","525.453","506.750","0"
"GENERATED VIA SPACETRACK.ORG API","18 SPCS","55094","SPACEBEE-165","PAYLOAD","U","23001CP","2023-03-22 03:23:00","290976","15.1664899","0.0013546","97.4878","142.1663","305.9748","54.0228","0","999","1189","0.00099086","0.00019397","0","3867300","0 SPACEBEE-165","1 55094U 23001CP  23081.14097559  .00019397  00000-0  99086-3 0  9997","2 55094  97.4878 142.1663 0013546 305.9748  54.0228 15.16648990 11895","2023-001CP","55094","6894.114","94.946","525.318","506.640","0"
"GENERATED VIA SPACETRACK.ORG API","18 SPCS","55094","SPACEBEE-165","PAYLOAD","U","23001CP","2023-03-22 14:28:02","738208","15.1666899","0.0013555","97.4874","142.6224","304.1613","55.8334","0","999","1196","0.0010621","0.00020812","0","3868201","0 SPACEBEE-165","1 55094U 23001CP  23081.60280947  .00020812  00000-0  10621-2 0  9994","2 55094  97.4874 142.6224 0013555 304.1613  55.8334 15.16668990 11968","2023-001CP","55094","6894.053","94.945","525.263","506.573","0"
"GENERATED VIA SPACETRACK.ORG API","18 SPCS","55094","SPACEBEE-165","PAYLOAD","U","23001CP","2023-03-23 03:08:04","874208","15.16690995","0.0013587","97.4869","143.1437","302.0094","57.9818","0","999","1204","0.00099181","0.00019439","0","3868494","0 SPACEBEE-165","1 55094U 23001CP  23082.13061197  .00019439  00000-0  99181-3 0  9999","2 55094  97.4869 143.1437 0013587 302.0094  57.9818 15.16690995 12049","2023-001CP","55094","6893.987","94.944","525.218","506.485","0"
"GENERATED VIA SPACETRACK.ORG API","18 SPCS","55094","SPACEBEE-165","PAYLOAD","U","23001CP","2023-03-23 17:23:06","564192","15.16716553","0.0013616","97.4868","143.7301","299.9215","60.0665","0","999","1213","0.001129","0.00022162","0","3868778","0 SPACEBEE-165","1 55094U 23001CP  23082.72438153  .00022162  00000-0  11290-2 0  9995","2 55094  97.4868 143.7301 0013616 299.9215  60.0665 15.16716553 12130","2023-001CP","55094","6893.909","94.942","525.161","506.387","0"
"GENERATED VIA SPACETRACK.ORG API","18 SPCS","55094","SPACEBEE-165","PAYLOAD","U","23001CP","2023-03-23 22:08:06","773568","15.16735021","0.0013593","97.4867","143.9257","299.1063","60.8809","0","999","1216","0.0016197","0.00031882","0","3868816","0 SPACEBEE-165","1 55094U 23001CP  23082.92230062  .00031882  00000-0  16197-2 0  9996","2 55094  97.4867 143.9257 0013593 299.1063  60.8809 15.16735021 12160","2023-001CP","55094","6893.853","94.941","525.089","506.347","0"
"GENERATED VIA SPACETRACK.ORG API","18 SPCS","55094","SPACEBEE-165","PAYLOAD","U","23001CP","2023-03-24 02:53:06","868032","15.16748282","0.0013697","97.4869","144.1213","298.3787","61.6065","0","999","1219","0.0016318","0.00032135","0","3869191","0 SPACEBEE-165","1 55094U 23001CP  23083.12021838  .00032135  00000-0  16318-2 0  9995","2 55094  97.4869 144.1213 0013697 298.3787  61.6065 15.16748282 12195","2023-001CP","55094","6893.813","94.940","525.120","506.236","0"
"GENERATED VIA SPACETRACK.ORG API","18 SPCS","55094","SPACEBEE-165","PAYLOAD","U","23001CP","2023-03-24 02:53:06","868032","15.16748282","0.0013697","97.4869","144.1213","298.3787","61.6065","0","999","1219","0.0016318","0.00032135","0","3869846","0 SPACEBEE-165","1 55094U 23001CP  23083.12021838  .00032135  00000-0  16318-2 0  9995","2 55094  97.4869 144.1213 0013697 298.3787  61.6065 15.16748282 12195","2023-001CP","55094","6893.813","94.940","525.120","506.236","0"
"GENERATED VIA SPACETRACK.ORG API","18 SPCS","55094","SPACEBEE-165","PAYLOAD","U","23001CP","2023-03-24 15:33:06","77664","15.16798481","0.0013556","97.4866","144.6421","296.2965","63.6875","0","999","1227","0.0019128","0.00037762","0","3869829","0 SPACEBEE-165","1 55094U 23001CP  23083.64798701  .00037762  00000-0  19128-2 0  9995","2 55094  97.4866 144.6421 0013556 296.2965  63.6875 15.16798481 12273","2023-001CP","55094","6893.661","94.937","524.871","506.181","0"
